IRIDIUM 36              
1 24967U 97056C   24286.73782027  .00002092  00000+0  69817-3 0  9999
2 24967  86.3906 276.9132 0002591  91.2723 268.8771 14.37114006416673
IRIDIUM 39              
1 25042U 97069D   24286.67880068  .00002659  00000+0  70253-3 0  9990
2 25042  86.3902 317.2669 0020018  57.5897 302.7240 14.48459332413121
IRIDIUM 38              
1 25043U 97069E   24286.70722751  .00001913  00000+0  63147-3 0  9995
2 25043  86.3987 337.2996 0002749 136.7738 223.3676 14.37609161410397
IRIDIUM 42              
1 25077U 97077A   24286.69118883  .00001782  00000+0  60848-3 0  9993
2 25077  86.4002 343.1677 0002052 111.5303 248.6113 14.35883679405678
IRIDIUM 44              
1 25078U 97077B   24286.68558666  .00001968  00000+0  62264-3 0  9990
2 25078  86.3962 325.7599 0003991 105.5216 254.6424 14.39727725408084
IRIDIUM 45              
1 25104U 97082A   24286.69442675  .00024397  00000+0  11815-2 0  9995
2 25104  86.3670 166.8542 0145227 169.3043 191.1343 15.09506609414544
IRIDIUM 24              
1 25105U 97082B   24286.83551059  .00002321  00000+0  70777-3 0  9995
2 25105  86.3983 185.1011 0011587 163.6360 196.5217 14.41564981407573
IRIDIUM 51              
1 25262U 98018A   24286.77732229  .00041239  00000+0  15662-2 0  9994
2 25262  86.3982 176.2587 0130650 106.3841 255.1812 15.18937785409213
